[{"OBJECT_NAME":"STARLINK-30309","OBJECT_ID":"2023-122A","EPOCH":"2026-03-09T09:53:54.246624","MEAN_MOTION":15.26712855,"ECCENTRICITY":0.00010941,"INCLINATION":42.9987,"RA_OF_ASC_NODE":94.1486,"ARG_OF_PERICENTER":299.3962,"MEAN_ANOMALY":60.678,"EPHEMERIS_TYPE":0,"CLASSIFICATION_TYPE":"U","NORAD_CAT_ID":57632,"ELEMENT_SET_NO":999,"REV_AT_EPOCH":14216,"BSTAR":-0.00015787097,"MEAN_MOTION_DOT":-4.488e-5,"MEAN_MOTION_DDOT":0},{"OBJECT_NAME":"SSC","OBJECT_ID":"1983-008H","EPOCH":"2026-03-09T22:25:23.890656","MEAN_MOTION":13.80329728,"ECCENTRICITY":0.07175979,"INCLINATION":63.3051,"RA_OF_ASC_NODE":276.7319,"ARG_OF_PERICENTER":134.8771,"MEAN_ANOMALY":231.29,"EPHEMERIS_TYPE":0,"CLASSIFICATION_TYPE":"U","NORAD_CAT_ID":13874,"ELEMENT_SET_NO":999,"REV_AT_EPOCH":33794,"BSTAR":0.00063857039,"MEAN_MOTION_DOT":5.119e-5,"MEAN_MOTION_DDOT":0}]
